OBJECT_NAME,OBJECT_ID,EPOCH,MEAN_MOTION,ECCENTRICITY,INCLINATION,RA_OF_ASC_NODE,ARG_OF_PERICENTER,MEAN_ANOMALY,EPHEMERIS_TYPE,CLASSIFICATION_TYPE,NORAD_CAT_ID,ELEMENT_SET_NO,REV_AT_EPOCH,BSTAR,MEAN_MOTION_DOT,MEAN_MOTION_DDOT
QB50P1,2014-033R,2026-06-18T14:24:00.294624,15.18277268,.0007983,98.0962,180.8450,209.9659,150.1117,0,U,40025,999,65324,.30544E-3,.6188E-4,0
DTUSAT-2,2014-033W,2026-06-18T21:20:16.213920,15.15033669,.0006804,98.0864,167.7240,218.7107,141.3636,0,U,40030,999,65294,.2882E-3,.5314E-4,0
QB50P2,2014-033Y,2026-06-18T18:01:36.634080,15.15174163,.0008168,98.0752,166.7286,158.5768,201.5806,0,U,40032,999,65290,.31045E-3,.5755E-4,0
PERSEUS-M1,2014-033AF,2026-06-18T18:36:54.067392,14.95634843,.0010198,97.9640,113.9333,295.2954,64.7209,0,U,40039,999,65087,.12433E-3,.1322E-4,0
POLYITAN-1,2014-033AJ,2026-06-18T14:50:43.312704,15.33297714,.0008724,98.0940,196.0151,137.4054,222.7864,0,U,40042,999,65381,.47423E-3,.152E-3,0
TIGRISAT,2014-033AK,2026-06-18T09:30:11.268000,14.85166384,.0050562,97.7831,319.3796,71.3546,289.3150,0,U,40043,999,64580,.1913E-3,.1621E-4,0
CANX-4,2014-034C,2026-06-18T15:18:43.670016,14.81266926,.001306,98.3120,45.0044,12.4887,347.6645,0,U,40055,999,64474,.98465E-4,.711E-5,0
CANX-5,2014-034D,2026-06-18T15:16:26.840064,14.81284229,.0013066,98.3121,45.0464,12.7135,347.4404,0,U,40056,999,63555,.9984E-4,.722E-5,0
GONETS-M 10,2014-036C,2026-06-18T20:11:28.807296,12.42945859,.0022726,82.5119,306.6463,137.1460,223.1396,0,U,40063,999,54245,.51561E-3,.82E-6,0
METEOR-M 2,2014-037A,2026-06-18T21:43:42.532896,14.21462242,.0006668,98.5117,145.5831,40.2448,319.9222,0,U,40069,999,61956,.84687E-4,.143E-5,0
DX1,2014-037C,2026-06-18T20:07:57.307008,14.89987642,.0005732,98.3870,131.6406,268.7870,91.2689,0,U,40071,999,64635,.1209E-3,.1103E-4,0
UKUBE-1,2014-037F,2026-06-18T18:07:03.305568,15.13575223,.0002745,98.4237,173.1912,131.1505,228.9960,0,U,40074,999,64879,.41753E-3,.7415E-4,0
GAOFEN-2,2014-049A,2026-06-18T20:46:22.759680,14.80898942,.0006261,98.0106,234.0712,220.4033,139.6715,0,U,40118,999,63948,.53543E-4,.36E-5,0
BRITE-PL2 (HEWELIUSZ),2014-049B,2026-06-18T18:41:57.182784,14.94598146,.0015333,97.9100,281.7913,103.7702,256.5226,0,U,40119,999,64168,.15283E-3,.1598E-4,0
CBERS 4,2014-079A,2026-06-18T20:23:13.591104,14.35508881,.0001784,98.3528,226.6290,62.5555,297.5812,0,U,40336,999,60419,-.52796E-5,-.57E-6,0
SMAP,2015-003A,2026-06-18T18:56:35.564064,14.63367725,.0001343,98.1276,176.8612,96.3627,263.7728,0,U,40376,999,60785,.70082E-4,.315E-5,0
GONETS-M 11,2015-020A,2026-06-18T20:38:07.590912,12.42877403,.0016554,82.4863,29.9493,2.2555,357.8596,0,U,40552,999,50894,.11414E-3,.26E-6,0
GONETS-M 12,2015-020B,2026-06-18T21:55:50.441664,12.42891536,.0015245,82.4897,31.0401,347.2676,12.8017,0,U,40553,999,50894,.4891E-3,.78E-6,0
GONETS-M 13,2015-020C,2026-06-18T21:17:41.816256,12.42870750,.0013584,82.4859,29.6709,332.5713,27.4649,0,U,40554,999,50891,.39413E-3,.64E-6,0
DMC3-FM1,2015-032A,2026-06-18T21:20:15.120960,14.85738617,.0006918,97.6454,34.9971,55.0756,305.1108,0,U,40715,999,59016,-.72118E-6,-.58E-6,0
DMC3-FM2,2015-032B,2026-06-18T21:51:59.986080,14.85744914,.0007483,97.6508,36.5930,59.3893,300.8059,0,U,40716,999,59016,.54707E-4,.424E-5,0
DMC3-FM3,2015-032C,2026-06-18T20:48:37.412352,14.85737167,.0006766,97.6561,38.3052,60.3115,299.8774,0,U,40717,999,59016,.1101E-3,.905E-5,0
CARBONITE 1 (CBNT-1),2015-032D,2026-06-18T19:13:43.960800,14.83593654,.0013081,97.6504,347.7996,292.4779,67.5050,0,U,40718,999,58958,.23478E-3,.1887E-4,0
LILACSAT-2,2015-049K,2026-06-18T21:13:57.696384,15.51490742,.0005622,97.4640,206.7910,236.9424,123.1288,0,U,40908,999,59601,.23796E-3,.13972E-3,0
COSMOS 2507 (RODNIK-S 13),2015-050A,2026-06-18T20:12:38.901024,12.42926865,.0010145,82.4929,78.6403,353.3904,6.7040,0,U,40920,999,48706,.62329E-3,.96E-6,0
COSMOS 2508 (RODNIK-S 14),2015-050B,2026-06-18T19:07:54.167808,12.42914463,.0015124,82.4882,77.1729,23.6148,336.5623,0,U,40921,999,48704,.75131E-3,.114E-5,0
COSMOS 2509 (RODNIK-S 15),2015-050C,2026-06-18T19:37:14.883168,12.42883675,.0015668,82.4890,77.2627,39.7037,320.5187,0,U,40922,999,48708,.26107E-3,.46E-6,0
